SAUDISAT 1C             
1 27607U 02058C   22287.48443816  .00001640  00000+0  24354-3 0  9997
2 27607  64.5538 297.6037 0081664 271.7649  87.4102 14.76319652 65940
SAUDISAT 2              
1 28371U 04025F   22288.46076325  .00000629  00000+0  15762-3 0  9997
2 28371  98.3926 245.5248 0026767  95.5149 264.9112 14.54622108970735
SAUDISAT 3              
1 31118U 07012B   22288.43143835  .00000430  00000+0  80788-4 0  9998
2 31118  97.9810 232.6401 0015300 168.6460 191.5094 14.69389910830772
PISAT                   
1 41784U 16059B   22287.34007869  .00000922  00000+0  18325-3 0  9997
2 41784  97.9037 325.9991 0032413 151.5170 208.7813 14.64045300323084
FLYING LAPTOP           
1 42831U 17042G   22288.52006059  .00001593  00000+0  16204-3 0  9994
2 42831  97.4074 135.9299 0013104 331.6219  28.4317 14.92011909285997
SALSAT                  
1 46495U 20068K   22287.39516506  .00004833  00000+0  34366-3 0  9992
2 46495  97.7387 228.8151 0015176 231.3106 128.6763 15.05057370112071
